INTELSAT 902 (IS-902)   
1 26900U 01039A   26196.47590510 -.00000297  00000+0  00000+0 0  9992
2 26900   6.1857  71.4350 0004220  41.7929 301.3181  1.00272544 90973
INTELSAT 904 (IS-904)   
1 27380U 02007A   26196.40827498 -.00000239  00000+0  00000+0 0  9998
2 27380   6.9884  68.8417 0005365  25.7006 314.2180  1.00270592 52046
DIRECTV 5 (TEMPO 1)     
1 27426U 02023A   26196.60658069 -.00000070  00000+0  00000+0 0  9998
2 27426   4.9484  74.9542 0003097  46.6638 280.0859  1.00271354 88400
INTELSAT 905 (IS-905)   
1 27438U 02027A   26196.43308703  .00000080  00000+0  00000+0 0  9993
2 27438   6.8222  69.4558 0003431  46.5032 196.0200  1.00271437 51643
GALAXY 3C (G-3C)        
1 27445U 02030A   26196.22821588 -.00000165  00000+0  00000+0 0  9998
2 27445   3.8041  77.6112 0001551  34.2037 168.5858  1.00270689 46773
INTELSAT 906 (IS-906)   
1 27513U 02041A   26196.21336427 -.00000001  00000+0  00000+0 0  9997
2 27513   5.8710  72.5745 0003810  24.9796 336.4716  1.00273148 87315
GALAXY 13 (HORIZONS-1)  
1 27954U 03044A   26196.59860731  .00000121  00000+0  00000+0 0  9993
2 27954   1.4901  83.5000 0002139  30.7847 244.6388  1.00271465 46858
INTELSAT 10-02          
1 28358U 04022A   26196.55677341 -.00000021  00000+0  00000+0 0  9998
2 28358   0.0546 251.5467 0000390 353.1779 248.1090  1.00271460 80845
DIRECTV 8               
1 28659U 05019A   26196.60476068  .00000000  00000+0  00000+0 0  9994
2 28659   0.0201  56.7837 0003188  73.6006 261.7411  1.00270563 77351
GALAXY 28 (G-28)        
1 28702U 05022A   26196.48041179 -.00000212  00000+0  00000+0 0  9990
2 28702   3.3689  78.5827 0002503  27.6260 332.9668  1.00271965 52263
GALAXY 16 (G-16)        
1 29236U 06023A   26196.51016899 -.00000137  00000+0  00000+0 0  9996
2 29236   0.0244 160.6690 0002486 311.9113 265.4233  1.00271291 73256
DIRECTV 9S              
1 29494U 06043A   26196.32998821 -.00000125  00000+0  00000+0 0  9994
2 29494   2.4913  80.5621 0005033  34.3920 195.8137  1.00271027 51665
GALAXY 17 (G-17)        
1 31307U 07016B   26196.54023793 -.00000218  00000+0  00000+0 0  9995
2 31307   3.0412  79.5411 0003563  34.2485 289.0568  1.00271699 70084
INTELSAT 11 (IS-11)     
1 32253U 07044B   26196.34361017 -.00000172  00000+0  00000+0 0  9998
2 32253   3.6367  78.3271 0004201 100.5768 239.9327  0.99052241 68724
HORIZONS-2              
1 32388U 07063B   26196.54249127 -.00000265  00000+0  00000+0 0  9990
2 32388   2.6732  80.2767 0003553  20.5152 314.0712  1.00269113 68091
DIRECTV 11              
1 32729U 08013A   26196.51016899 -.00000136  00000+0  00000+0 0  9997
2 32729   0.0353 223.2222 0000080 348.5472 166.0602  1.00271599 45871
GALAXY 18 (G-18)        
1 32951U 08024A   26196.60398067  .00000015  00000+0  00000+0 0  9991
2 32951   0.0151  59.4809 0002882  68.4425 259.9501  1.00271576 46137
GALAXY 19 (G-19)        
1 33376U 08045A   26196.60918071 -.00000149  00000+0  00000+0 0  9998
2 33376   0.0561 246.8369 0002312 237.6388 291.2852  1.00270568 65187
FM-5                    
1 35493U 09034A   26194.90035760 -.00000205  00000+0  00000+0 0  9998
2 35493   0.0457 259.5714 0000757  86.9227 183.2440  1.00271245 46912
INTELSAT 14 (IS-14)     
1 36097U 09064A   26196.48794642 -.00000284  00000+0  00000+0 0  9995
2 36097   0.0172 313.3270 0002209 170.7008 299.9541  1.00268516 60882
INTELSAT 15 (IS-15)     
1 36106U 09067A   26196.57396175 -.00000194  00000+0  00000+0 0  9998
2 36106   0.0165 355.4995 0002232 124.1533 105.5189  1.00268553 41518
DIRECTV 12              
1 36131U 09075A   26195.96641635 -.00000112  00000+0  00000+0 0  9991
2 36131   0.0065 109.4409 0000351 121.9560 306.6005  1.00271543 46831
INTELSAT 16 (IS-16)     
1 36397U 10006A   26196.54197127 -.00000254  00000+0  00000+0 0  9995
2 36397   0.0113  48.4234 0002345  89.6068 274.2511  1.00269911 59938
XM-5                    
1 37185U 10053A   26194.27598828 -.00000026  00000+0  00000+0 0  9991
2 37185   0.0648 265.0318 0001728 322.3275  47.9546  1.00270903 57741
INTELSAT 17 (IS-17)     
1 37238U 10065B   26196.62058611  .00000000  00000+0  00000+0 0  9996
2 37238   0.0353  98.8345 0002834  41.6474  82.3701  1.00270917 53530
INTELSAT 28 (IS-28)     
1 37392U 11016A   26196.40818831 -.00000236  00000+0  00000+0 0  9990
2 37392   1.8771  82.2783 0003673  39.9840 286.2268  1.00272215 53565
INTELSAT 18 (IS-18)     
1 37834U 11056A   26196.09368806  .00000000  00000+0  00000+0 0  9990
2 37834   0.0189  45.6371 0001729  77.2646  23.7770  1.00269911 54095
INTELSAT 22 (IS-22)     
1 38098U 12011A   26196.35739023 -.00000068  00000+0  00000+0 0  9992
2 38098   0.0123  41.3176 0001848  82.8555   9.7898  1.00272392  7477
INTELSAT 19 (IS-19)     
1 38356U 12030A   26196.59628115 -.00000067  00000+0  00000+0 0  9994
2 38356   0.0189  29.5811 0003198  98.2029 186.3113  1.00271361 50731
INTELSAT 20 (IS-20)     
1 38740U 12043A   26196.49930522 -.00000034  00000+0  00000+0 0  9996
2 38740   0.0132  67.0616 0001219 109.2991   5.2310  1.00270881 51037
INTELSAT 21 (IS-21)     
1 38749U 12045A   26195.19052400 -.00000291  00000+0  00000+0 0  9998
2 38749   0.0563 254.8538 0001278 255.5602 152.2105  1.00263192 50796
