OBJECT_NAME,OBJECT_ID,EPOCH,MEAN_MOTION,ECCENTRICITY,INCLINATION,RA_OF_ASC_NODE,ARG_OF_PERICENTER,MEAN_ANOMALY,EPHEMERIS_TYPE,CLASSIFICATION_TYPE,NORAD_CAT_ID,ELEMENT_SET_NO,REV_AT_EPOCH,BSTAR,MEAN_MOTION_DOT,MEAN_MOTION_DDOT
INTELSAT 902 (IS-902),2001-039A,2026-07-15T11:25:18.200640,1.00272544,.00042209,6.1857,71.4350,41.7929,301.3181,0,U,26900,999,9097,0,-.297E-5,0
INTELSAT 904 (IS-904),2002-007A,2026-07-15T09:47:54.958272,1.00270592,.0005365,6.9884,68.8417,25.7006,314.2180,0,U,27380,999,5204,0,-.239E-5,0
DIRECTV 5 (TEMPO 1),2002-023A,2026-07-15T14:33:28.571616,1.00271354,.00030977,4.9484,74.9542,46.6638,280.0859,0,U,27426,999,8840,0,-.7E-6,0
INTELSAT 905 (IS-905),2002-027A,2026-07-15T10:23:38.719392,1.00271437,.00034315,6.8222,69.4558,46.5032,196.0200,0,U,27438,999,5164,0,.8E-6,0
GALAXY 3C (G-3C),2002-030A,2026-07-15T05:28:37.852032,1.00270689,.00015511,3.8041,77.6112,34.2037,168.5858,0,U,27445,999,4677,0,-.165E-5,0
INTELSAT 906 (IS-906),2002-041A,2026-07-15T05:07:14.672928,1.00273148,.00038104,5.8710,72.5745,24.9796,336.4716,0,U,27513,999,8731,0,-.1E-7,0
GALAXY 13 (HORIZONS-1),2003-044A,2026-07-15T14:21:59.671584,1.00271465,.00021398,1.4901,83.5000,30.7847,244.6388,0,U,27954,999,4685,0,.121E-5,0
INTELSAT 10-02,2004-022A,2026-07-15T13:21:45.222624,1.00271460,.00003907,0.0546,251.5467,353.1779,248.1090,0,U,28358,999,8084,0,-.21E-6,0
DIRECTV 8,2005-019A,2026-07-15T14:30:51.322752,1.00270563,.00031885,0.0201,56.7837,73.6006,261.7411,0,U,28659,999,7735,0,0,0
GALAXY 28 (G-28),2005-022A,2026-07-15T11:31:47.578656,1.00271965,.00025038,3.3689,78.5827,27.6260,332.9668,0,U,28702,999,5226,0,-.212E-5,0
GALAXY 16 (G-16),2006-023A,2026-07-15T12:14:38.600736,1.00271291,.00024868,0.0244,160.6690,311.9113,265.4233,0,U,29236,999,7325,0,-.137E-5,0
DIRECTV 9S,2006-043A,2026-07-15T07:55:10.981344,1.00271027,.00050337,2.4913,80.5621,34.3920,195.8137,0,U,29494,999,5166,0,-.125E-5,0
GALAXY 17 (G-17),2007-016B,2026-07-15T12:57:56.557152,1.00271699,.00035639,3.0412,79.5411,34.2485,289.0568,0,U,31307,999,7008,0,-.218E-5,0
INTELSAT 11 (IS-11),2007-044B,2026-07-15T08:14:47.918688,0.99052241,.00042017,3.6367,78.3271,100.5768,239.9327,0,U,32253,999,6872,0,-.172E-5,0
HORIZONS-2,2007-063B,2026-07-15T13:01:11.245728,1.00269113,.00035539,2.6732,80.2767,20.5152,314.0712,0,U,32388,999,6809,0,-.265E-5,0
DIRECTV 11,2008-013A,2026-07-15T12:14:38.600736,1.00271599,.00000802,0.0353,223.2222,348.5472,166.0602,0,U,32729,999,4587,0,-.136E-5,0
GALAXY 18 (G-18),2008-024A,2026-07-15T14:29:43.929888,1.00271576,.0002882,0.0151,59.4809,68.4425,259.9501,0,U,32951,999,4613,0,.15E-6,0
GALAXY 19 (G-19),2008-045A,2026-07-15T14:37:13.213344,1.00270568,.00023121,0.0561,246.8369,237.6388,291.2852,0,U,33376,999,6518,0,-.149E-5,0
FM-5,2009-034A,2026-07-13T21:36:30.896640,1.00271245,.00007579,0.0457,259.5714,86.9227,183.2440,0,U,35493,999,4691,0,-.205E-5,0
INTELSAT 14 (IS-14),2009-064A,2026-07-15T11:42:38.570688,1.00268516,.00022091,0.0172,313.3270,170.7008,299.9541,0,U,36097,999,6088,0,-.284E-5,0
INTELSAT 15 (IS-15),2009-067A,2026-07-15T13:46:30.295200,1.00268553,.00022322,0.0165,355.4995,124.1533,105.5189,0,U,36106,999,4151,0,-.194E-5,0
DIRECTV 12,2009-075A,2026-07-14T23:11:38.372640,1.00271543,.00003517,0.0065,109.4409,121.9560,306.6005,0,U,36131,999,4683,0,-.112E-5,0
INTELSAT 16 (IS-16),2010-006A,2026-07-15T13:00:26.317728,1.00269911,.00023459,0.0113,48.4234,89.6068,274.2511,0,U,36397,999,5993,0,-.254E-5,0
XM-5,2010-053A,2026-07-13T06:37:25.387392,1.00270903,.0001728,0.0648,265.0318,322.3275,47.9546,0,U,37185,999,5774,0,-.26E-6,0
INTELSAT 17 (IS-17),2010-065B,2026-07-15T14:53:38.639904,1.00270917,.00028343,0.0353,98.8345,41.6474,82.3701,0,U,37238,999,5353,0,0,0
INTELSAT 28 (IS-28),2011-016A,2026-07-15T09:47:47.469984,1.00272215,.00036738,1.8771,82.2783,39.9840,286.2268,0,U,37392,999,5356,0,-.236E-5,0
INTELSAT 18 (IS-18),2011-056A,2026-07-15T02:14:54.648384,1.00269911,.00017291,0.0189,45.6371,77.2646,23.7770,0,U,37834,999,5409,0,0,0
INTELSAT 22 (IS-22),2012-011A,2026-07-15T08:34:38.515872,1.00272392,.0001848,0.0123,41.3176,82.8555,9.7898,0,U,38098,999,747,0,-.68E-6,0
INTELSAT 19 (IS-19),2012-030A,2026-07-15T14:18:38.691360,1.00271361,.00031986,0.0189,29.5811,98.2029,186.3113,0,U,38356,999,5073,0,-.67E-6,0
INTELSAT 20 (IS-20),2012-043A,2026-07-15T11:58:59.971008,1.00270881,.00012197,0.0132,67.0616,109.2991,5.2310,0,U,38740,999,5103,0,-.34E-6,0
INTELSAT 21 (IS-21),2012-045A,2026-07-14T04:34:21.273600,1.00263192,.00012787,0.0563,254.8538,255.5602,152.2105,0,U,38749,999,5079,0,-.291E-5,0
